start=new Date('2023-02-25T00:00:00.000Z').valueOf();
sats=[{"TLE_LINE2":"2 44724  53.0541 125.7048 0001761 108.8795 251.2385 15.06395063181577","BSTAR":"-0.00009936900000","PERIOD":"95.592","SEMIMAJOR_AXIS":"6925.364","TLE_LINE1":"1 44724U 19074M   23055.55792897 -.00001761  00000-0 -99369-4 0  9996","ELEMENT_SET_NO":"999","ARG_OF_PERICENTER":"108.8795","FILE":"3835059","RA_OF_ASC_NODE":"125.7048","OBJECT_NAME":"STARLINK-1019","GP_ID":"226773837","ECCENTRICITY":"0.00017610","CLASSIFICATION_TYPE":"U","NORAD_CAT_ID":"44724","DECAY_DATE":null,"PERIAPSIS":"546.009","INCLINATION":"53.0541","LAUNCH_DATE":"2019-11-11","MEAN_MOTION_DOT":"-0.00001761","MEAN_MOTION":"15.06395063","APOAPSIS":"548.448","REV_AT_EPOCH":"18157","EPHEMERIS_TYPE":"0","MEAN_ELEMENT_THEORY":"SGP4","RCS_SIZE":"LARGE","OBJECT_TYPE":"PAYLOAD","MEAN_ANOMALY":"251.2385","OBJECT_ID":"2019-074M","CENTER_NAME":"EARTH","EPOCH":"2023-02-24T13:23:25.063008","COUNTRY_CODE":"US","SITE":"AFETR","TIME_SYSTEM":"UTC","MEAN_MOTION_DDOT":"0.0000000000000","REF_FRAME":"TEME"},{"MEAN_ELEMENT_THEORY":"SGP4","RCS_SIZE":"LARGE","APOAPSIS":"548.151","REV_AT_EPOCH":"18132","EPHEMERIS_TYPE":"0","MEAN_MOTION_DOT":"0.00022451","MEAN_MOTION":"15.06400921","INCLINATION":"53.0510","PERIAPSIS":"546.270","LAUNCH_DATE":"2019-11-11","DECAY_DATE":null,"CLASSIFICATION_TYPE":"U","NORAD_CAT_ID":"44725","OBJECT_NAME":"STARLINK-1020","ECCENTRICITY":"0.00013580","GP_ID":"226774086","RA_OF_ASC_NODE":"144.7885","FILE":"3835059","ELEMENT_SET_NO":"999","ARG_OF_PERICENTER":"84.1601","SEMIMAJOR_AXIS":"6925.346","TLE_LINE1":"1 44725U 19074N   23055.76250389  .00022451  00000-0  15213-2 0  9996","PERIOD":"95.592","TLE_LINE2":"2 44725  53.0510 144.7885 0001358  84.1601 275.9543 15.06400921181320","BSTAR":"0.00152130000000","MEAN_MOTION_DDOT":"0.0000000000000","REF_FRAME":"TEME","TIME_SYSTEM":"UTC","SITE":"AFETR","EPOCH":"2023-02-24T18:18:00.336096","COUNTRY_CODE":"US","CENTER_NAME":"EARTH","OBJECT_ID":"2019-074N","MEAN_ANOMALY":"275.9543","OBJECT_TYPE":"PAYLOAD"},{"REV_AT_EPOCH":"18162","EPHEMERIS_TYPE":"0","APOAPSIS":"548.192","RCS_SIZE":"LARGE","MEAN_ELEMENT_THEORY":"SGP4","LAUNCH_DATE":"2019-11-11","INCLINATION":"53.0541","PERIAPSIS":"546.205","MEAN_MOTION":"15.06404911","MEAN_MOTION_DOT":"0.00013134","DECAY_DATE":null,"NORAD_CAT_ID":"44726","CLASSIFICATION_TYPE":"U","RA_OF_ASC_NODE":"124.2287","ECCENTRICITY":"0.00014340","GP_ID":"226774836","OBJECT_NAME":"STARLINK-1021","ARG_OF_PERICENTER":"100.1430","ELEMENT_SET_NO":"999","FILE":"3835059","PERIOD":"95.592","TLE_LINE1":"1 44726U 19074P   23055.88598231  .00013134  00000-0  89885-3 0  9996","SEMIMAJOR_AXIS":"6925.334","BSTAR":"0.00089885000000","TLE_LINE2":"2 44726  53.0541 124.2287 0001434 100.1430 259.9720 15.06404911181623","TIME_SYSTEM":"UTC","REF_FRAME":"TEME","MEAN_MOTION_DDOT":"0.0000000000000","SITE":"AFETR","COUNTRY_CODE":"US","EPOCH":"2023-02-24T21:15:48.871584","OBJECT_ID":"2019-074P","CENTER_NAME":"EARTH","OBJECT_TYPE":"PAYLOAD","MEAN_ANOMALY":"259.9720"},{"CENTER_NAME":"EARTH","OBJECT_ID":"2019-074Q","MEAN_ANOMALY":"277.9871","OBJECT_TYPE":"PAYLOAD","REF_FRAME":"TEME","MEAN_MOTION_DDOT":"0.0000000000000","TIME_SYSTEM":"UTC","SITE":"AFETR","EPOCH":"2023-02-24T18:56:27.026880","COUNTRY_CODE":"US","OBJECT_NAME":"STARLINK-1022","ECCENTRICITY":"0.00015010","GP_ID":"226774586","RA_OF_ASC_NODE":"164.6665","FILE":"3835059","ARG_OF_PERICENTER":"82.1288","ELEMENT_SET_NO":"999","SEMIMAJOR_AXIS":"6925.318","TLE_LINE1":"1 44727U 19074Q   23055.78920170  .00019642  00000-0  13335-2 0  9993","PERIOD":"95.592","BSTAR":"0.00133350000000","TLE_LINE2":"2 44727  53.0534 164.6665 0001501  82.1288 277.9871 15.06409826181064","RCS_SIZE":"LARGE","MEAN_ELEMENT_THEORY":"SGP4","APOAPSIS":"548.223","EPHEMERIS_TYPE":"0","REV_AT_EPOCH":"18106","MEAN_MOTION_DOT":"0.00019642","MEAN_MOTION":"15.06409826","INCLINATION":"53.0534","PERIAPSIS":"546.144","LAUNCH_DATE":"2019-11-11","DECAY_DATE":null,"CLASSIFICATION_TYPE":"U","NORAD_CAT_ID":"44727"},{"OBJECT_TYPE":"PAYLOAD","MEAN_ANOMALY":"321.4061","OBJECT_ID":"2019-074S","CENTER_NAME":"EARTH","SITE":"AFETR","EPOCH":"2023-02-24T20:21:12.572352","COUNTRY_CODE":"US","TIME_SYSTEM":"UTC","REF_FRAME":"TEME","MEAN_MOTION_DDOT":"0.0000000000000","PERIOD":"94.162","SEMIMAJOR_AXIS":"6856.089","TLE_LINE1":"1 44729U 19074S   23055.84806218  .00052747  00000-0  18309-2 0  9997","TLE_LINE2":"2 44729  53.0161 110.1388 0003967  38.7221 321.4061 15.29283666181773","BSTAR":"0.00183090000000","RA_OF_ASC_NODE":"110.1388","OBJECT_NAME":"STARLINK-1024","GP_ID":"226773340","ECCENTRICITY":"0.00039670","ELEMENT_SET_NO":"999","ARG_OF_PERICENTER":"38.7221","FILE":"3835059","DECAY_DATE":null,"CLASSIFICATION_TYPE":"U","NORAD_CAT_ID":"44729","APOAPSIS":"480.674","REV_AT_EPOCH":"18177","EPHEMERIS_TYPE":"0","MEAN_ELEMENT_THEORY":"SGP4","RCS_SIZE":"LARGE","INCLINATION":"53.0161","PERIAPSIS":"475.235","LAUNCH_DATE":"2019-11-11","MEAN_MOTION_DOT":"0.00052747","MEAN_MOTION":"15.29283666"},{"DECAY_DATE":null,"CLASSIFICATION_TYPE":"U","NORAD_CAT_ID":"44731","APOAPSIS":"548.345","REV_AT_EPOCH":"18162","EPHEMERIS_TYPE":"0","MEAN_ELEMENT_THEORY":"SGP4","RCS_SIZE":"LARGE","INCLINATION":"53.0511","PERIAPSIS":"545.892","LAUNCH_DATE":"2019-11-11","MEAN_MOTION_DOT":"0.00020124","MEAN_MOTION":"15.06430932","PERIOD":"95.590","SEMIMAJOR_AXIS":"6925.254","TLE_LINE1":"1 44731U 19074U   23055.89704480  .00020124  00000-0  13649-2 0  9999","BSTAR":"0.00136490000000","TLE_LINE2":"2 44731  53.0511 124.1835 0001771  79.1748 280.9441 15.06430932181621","RA_OF_ASC_NODE":"124.1835","OBJECT_NAME":"STARLINK-1026","GP_ID":"226773587","ECCENTRICITY":"0.00017710","ARG_OF_PERICENTER":"79.1748","ELEMENT_SET_NO":"999","FILE":"3835059","SITE":"AFETR","EPOCH":"2023-02-24T21:31:44.670720","COUNTRY_CODE":"US","TIME_SYSTEM":"UTC","MEAN_MOTION_DDOT":"0.0000000000000","REF_FRAME":"TEME","OBJECT_TYPE":"PAYLOAD","MEAN_ANOMALY":"280.9441","OBJECT_ID":"2019-074U","CENTER_NAME":"EARTH"},{"BSTAR":"0.00062622000000","TLE_LINE2":"2 44732  53.0519 145.1355 0001561  99.7492 260.3673 15.06391224181316","SEMIMAJOR_AXIS":"6925.375","TLE_LINE1":"1 44732U 19074V   23055.68509438  .00009056  00000-0  62622-3 0  9990","PERIOD":"95.593","FILE":"3835059","ELEMENT_SET_NO":"999","ARG_OF_PERICENTER":"99.7492","OBJECT_NAME":"STARLINK-1027","ECCENTRICITY":"0.00015610","GP_ID":"226774337","RA_OF_ASC_NODE":"145.1355","CLASSIFICATION_TYPE":"U","NORAD_CAT_ID":"44732","DECAY_DATE":null,"MEAN_MOTION_DOT":"0.00009056","MEAN_MOTION":"15.06391224","PERIAPSIS":"546.159","INCLINATION":"53.0519","LAUNCH_DATE":"2019-11-11","MEAN_ELEMENT_THEORY":"SGP4","RCS_SIZE":"LARGE","APOAPSIS":"548.322","EPHEMERIS_TYPE":"0","REV_AT_EPOCH":"18131","MEAN_ANOMALY":"260.3673","OBJECT_TYPE":"PAYLOAD","CENTER_NAME":"EARTH","OBJECT_ID":"2019-074V","EPOCH":"2023-02-24T16:26:32.154432","COUNTRY_CODE":"US","SITE":"AFETR","MEAN_MOTION_DDOT":"0.0000000000000","REF_FRAME":"TEME","TIME_SYSTEM":"UTC"},{"SEMIMAJOR_AXIS":"6925.355","TLE_LINE1":"1 44733U 19074W   23055.88230228  .00002686  00000-0  19917-3 0  9992","PERIOD":"95.592","TLE_LINE2":"2 44733  53.0557 124.2458 0001529  83.0759 277.0403 15.06397872181622","BSTAR":"0.00019917000000","OBJECT_NAME":"STARLINK-1028","GP_ID":"226775086","ECCENTRICITY":"0.00015290","RA_OF_ASC_NODE":"124.2458","FILE":"3835059","ARG_OF_PERICENTER":"83.0759","ELEMENT_SET_NO":"999","DECAY_DATE":null,"CLASSIFICATION_TYPE":"U","NORAD_CAT_ID":"44733","MEAN_ELEMENT_THEORY":"SGP4","RCS_SIZE":"LARGE","APOAPSIS":"548.279","EPHEMERIS_TYPE":"0","REV_AT_EPOCH":"18162","MEAN_MOTION_DOT":"0.00002686","MEAN_MOTION":"15.06397872","PERIAPSIS":"546.161","INCLINATION":"53.0557","LAUNCH_DATE":"2019-11-11","MEAN_ANOMALY":"277.0403","OBJECT_TYPE":"PAYLOAD","CENTER_NAME":"EARTH","OBJECT_ID":"2019-074W","SITE":"AFETR","EPOCH":"2023-02-24T21:10:30.916992","COUNTRY_CODE":"US","MEAN_MOTION_DDOT":"0.0000000000000","REF_FRAME":"TEME","TIME_SYSTEM":"UTC"},{"COUNTRY_CODE":"US","EPOCH":"2023-02-24T16:45:05.886720","SITE":"AFETR","REF_FRAME":"TEME","MEAN_MOTION_DDOT":"0.0000000000000","TIME_SYSTEM":"UTC","MEAN_ANOMALY":"268.7030","OBJECT_TYPE":"PAYLOAD","CENTER_NAME":"EARTH","OBJECT_ID":"2019-074X","NORAD_CAT_ID":"44734","CLASSIFICATION_TYPE":"U","DECAY_DATE":null,"MEAN_MOTION":"15.06410178","MEAN_MOTION_DOT":"0.00013231","LAUNCH_DATE":"2019-11-11","INCLINATION":"53.0550","PERIAPSIS":"546.342","MEAN_ELEMENT_THEORY":"SGP4","RCS_SIZE":"LARGE","EPHEMERIS_TYPE":"0","REV_AT_EPOCH":"18269","APOAPSIS":"548.022","TLE_LINE2":"2 44734  53.0550  45.0733 0001213  91.4098 268.7030 15.06410178182697","BSTAR":"0.00090525000000","TLE_LINE1":"1 44734U 19074X   23055.69798480  .00013231  00000-0  90525-3 0  9993","SEMIMAJOR_AXIS":"6925.317","PERIOD":"95.591","FILE":"3835059","ARG_OF_PERICENTER":"91.4098","ELEMENT_SET_NO":"999","GP_ID":"226773838","ECCENTRICITY":"0.00012130","OBJECT_NAME":"STARLINK-1029","RA_OF_ASC_NODE":"45.0733"},{"MEAN_ELEMENT_THEORY":"SGP4","RCS_SIZE":"LARGE","APOAPSIS":"548.326","REV_AT_EPOCH":"18132","EPHEMERIS_TYPE":"0","MEAN_MOTION_DOT":"0.00017413","MEAN_MOTION":"15.06390667","PERIAPSIS":"546.158","INCLINATION":"53.0521","LAUNCH_DATE":"2019-11-11","DECAY_DATE":null,"CLASSIFICATION_TYPE":"U","NORAD_CAT_ID":"44735","OBJECT_NAME":"STARLINK-1030","GP_ID":"226774087","ECCENTRICITY":"0.00015650","RA_OF_ASC_NODE":"144.8036","FILE":"3835059","ARG_OF_PERICENTER":"97.7526","ELEMENT_SET_NO":"999","SEMIMAJOR_AXIS":"6925.377","TLE_LINE1":"1 44735U 19074Y   23055.75881627  .00017413  00000-0  11853-2 0  9999","PERIOD":"95.593","BSTAR":"0.00118530000000","TLE_LINE2":"2 44735  53.0521 144.8036 0001565  97.7526 262.3641 15.06390667181322","MEAN_MOTION_DDOT":"0.0000000000000","REF_FRAME":"TEME","TIME_SYSTEM":"UTC","SITE":"AFETR","EPOCH":"2023-02-24T18:12:41.725728","COUNTRY_CODE":"US","CENTER_NAME":"EARTH","OBJECT_ID":"2019-074Y","MEAN_ANOMALY":"262.3641","OBJECT_TYPE":"PAYLOAD"}];
